{"norad_cat_id":"54614","object_name":"CZ-6A DEB","object_id":"2022-151NQ","object_type":"DEBRIS","country_code":"PRC","epoch":"2026-05-30T04:53:49.005888","creation_date":"2026-05-30T07:36:53","launch_date":"2022-11-11","decay_date":null,"inclination":98.6348,"eccentricity":0.0037368,"mean_motion":15.05539008,"period":95.647,"semimajor_axis":6927.989,"apoapsis":575.742,"periapsis":523.965,"tle_line0":"0 CZ-6A DEB","tle_line1":"1 54614U 22151NQ  26150.20403942  .00079149  00000-0  53630-2 0  9998","tle_line2":"2 54614  98.6348 238.2335 0037368 272.6330  87.0616 15.05539008117122","fetched_at":"2026-05-30T16:18:06.042337+00:00"}
{"norad_cat_id":"10693","object_name":"SL-8 R/B","object_id":"1978-022B","object_type":"ROCKET BODY","country_code":"CIS","epoch":"2026-05-30T04:53:40.848864","creation_date":"2026-05-30T07:26:56","launch_date":"1978-02-28","decay_date":null,"inclination":82.9887,"eccentricity":0.002002,"mean_motion":13.77703884,"period":104.522,"semimajor_axis":7350.179,"apoapsis":986.759,"periapsis":957.329,"tle_line0":"0 SL-8 R/B","tle_line1":"1 10693U 78022B   26150.20394501  .00000093  00000-0  77678-4 0  9997","tle_line2":"2 10693  82.9887 234.9127 0020020 241.8012 136.5104 13.77703884424742","fetched_at":"2026-05-30T16:18:06.042337+00:00"}
{"norad_cat_id":"48918","object_name":"ICEYE-X11","object_id":"2021-059AR","object_type":"PAYLOAD","country_code":"FIN","epoch":"2026-05-30T04:53:39.798240","creation_date":"2026-05-30T07:36:53","launch_date":"2021-06-30","decay_date":null,"inclination":97.6337,"eccentricity":0.0002293,"mean_motion":15.92416772,"period":90.429,"semimajor_axis":6673.659,"apoapsis":297.054,"periapsis":293.994,"tle_line0":"0 ICEYE-X11","tle_line1":"1 48918U 21059AR  26150.20393285  .00236424  23161-4  70490-3 0  9994","tle_line2":"2 48918  97.6337 347.2344 0002293  54.6021 305.5466 15.92416772275128","fetched_at":"2026-05-30T16:18:06.042337+00:00"}
{"norad_cat_id":"23845","object_name":"SL-12 R/B(2)","object_id":"1996-021D","object_type":"ROCKET BODY","country_code":"CIS","epoch":"2026-05-30T04:53:38.732928","creation_date":"2026-05-30T07:36:53","launch_date":"1996-04-08","decay_date":null,"inclination":5.0774,"eccentricity":0.3982917,"mean_motion":1.64338216,"period":876.242,"semimajor_axis":30332.588,"apoapsis":36035.671,"periapsis":11873.235,"tle_line0":"0 SL-12 R/B(2)","tle_line1":"1 23845U 96021D   26150.20392052 -.00000067  00000-0  00000+0 0  9990","tle_line2":"2 23845   5.0774 230.2623 3982917 275.3110  39.0776  1.64338216180907","fetched_at":"2026-05-30T16:18:06.042337+00:00"}
{"norad_cat_id":"62727","object_name":"OBJECT C","object_id":"2025-012C","object_type":"UNKNOWN","country_code":"PRC","epoch":"2026-05-30T04:53:37.011840","creation_date":"2026-05-30T07:46:57","launch_date":"2025-01-17","decay_date":null,"inclination":97.4269,"eccentricity":0.0006281,"mean_motion":15.2709674,"period":94.297,"semimajor_axis":6862.634,"apoapsis":488.809,"periapsis":480.188,"tle_line0":"0 OBJECT C","tle_line1":"1 62727U 25012C   26150.20390060  .00015038  00000-0  56773-3 0  9996","tle_line2":"2 62727  97.4269 225.7984 0006281 339.3480  20.7504 15.27096740 75648","fetched_at":"2026-05-30T16:18:06.042337+00:00"}
{"norad_cat_id":"6985","object_name":"COSMOS 617","object_id":"1973-104A","object_type":"PAYLOAD","country_code":"CIS","epoch":"2026-05-30T04:53:32.853408","creation_date":"2026-05-30T07:26:56","launch_date":"1973-12-19","decay_date":null,"inclination":74.0305,"eccentricity":0.0095535,"mean_motion":12.63531719,"period":113.966,"semimajor_axis":7786.538,"apoapsis":1482.792,"periapsis":1334.014,"tle_line0":"0 COSMOS 617","tle_line1":"1  6985U 73104A   26150.20385247 -.00000013  00000-0  15913-4 0  9996","tle_line2":"2  6985  74.0305  63.1190 0095535  99.7813  65.5794 12.63531719418954","fetched_at":"2026-05-30T16:18:06.042337+00:00"}
{"norad_cat_id":"58073","object_name":"YUNHAI 1-04","object_id":"2023-159A","object_type":"PAYLOAD","country_code":"PRC","epoch":"2026-05-30T04:53:28.112640","creation_date":"2026-05-30T07:36:53","launch_date":"2023-10-15","decay_date":null,"inclination":98.4981,"eccentricity":5.16e-05,"mean_motion":14.32717034,"period":100.508,"semimajor_axis":7160.8,"apoapsis":783.035,"periapsis":782.296,"tle_line0":"0 YUNHAI 1-04","tle_line1":"1 58073U 23159A   26150.20379760  .00000334  00000-0  13853-3 0  9994","tle_line2":"2 58073  98.4981 176.2919 0000516 144.4883 215.6335 14.32717034137225","fetched_at":"2026-05-30T16:18:06.042337+00:00"}
{"norad_cat_id":"58298","object_name":"SPIP","object_id":"2023-174AU","object_type":"PAYLOAD","country_code":"BEL","epoch":"2026-05-30T04:53:26.276640","creation_date":"2026-05-30T07:46:57","launch_date":"2023-11-11","decay_date":null,"inclination":97.385,"eccentricity":0.0007877,"mean_motion":15.27481842,"period":94.273,"semimajor_axis":6861.48,"apoapsis":488.75,"periapsis":477.94,"tle_line0":"0 SPIP","tle_line1":"1 58298U 23174AU  26150.20377635  .00006203  00000-0  23326-3 0  9996","tle_line2":"2 58298  97.3850 226.8875 0007877 244.2364 115.8062 15.27481842142033","fetched_at":"2026-05-30T16:18:06.042337+00:00"}
{"norad_cat_id":"43259","object_name":"GAOFEN 1-02","object_id":"2018-031A","object_type":"PAYLOAD","country_code":"PRC","epoch":"2026-05-30T04:53:25.395360","creation_date":"2026-05-30T07:26:56","launch_date":"2018-03-31","decay_date":null,"inclination":98.0539,"eccentricity":0.0004587,"mean_motion":14.76453031,"period":97.531,"semimajor_axis":7018.68,"apoapsis":643.764,"periapsis":637.325,"tle_line0":"0 GAOFEN 1-02","tle_line1":"1 43259U 18031A   26150.20376615  .00001256  00000-0  18798-3 0  9990","tle_line2":"2 43259  98.0539 212.7798 0004587  75.9308 284.2411 14.76453031440049","fetched_at":"2026-05-30T16:18:06.042337+00:00"}
{"norad_cat_id":"30364","object_name":"FENGYUN 1C DEB","object_id":"1999-025ACB","object_type":"DEBRIS","country_code":"PRC","epoch":"2026-05-30T04:53:23.299296","creation_date":"2026-05-30T07:46:57","launch_date":"1999-05-10","decay_date":null,"inclination":98.1343,"eccentricity":0.0322099,"mean_motion":14.19441421,"period":101.448,"semimajor_axis":7205.379,"apoapsis":1059.329,"periapsis":595.16,"tle_line0":"0 FENGYUN 1C DEB","tle_line1":"1 30364U 99025ACB 26150.20374189  .00004489  00000-0  12796-2 0  9991","tle_line2":"2 30364  98.1343  57.9919 0322099 186.7165 334.4527 14.19441421980292","fetched_at":"2026-05-30T16:18:06.042337+00:00"}
{"norad_cat_id":"31661","object_name":"FENGYUN 1C DEB","object_id":"1999-025CBT","object_type":"DEBRIS","country_code":"PRC","epoch":"2026-05-30T04:53:20.195808","creation_date":"2026-05-30T07:46:57","launch_date":"1999-05-10","decay_date":null,"inclination":98.851,"eccentricity":0.005975,"mean_motion":14.26626783,"period":100.937,"semimajor_axis":7181.165,"apoapsis":845.938,"periapsis":760.123,"tle_line0":"0 FENGYUN 1C DEB","tle_line1":"1 31661U 99025CBT 26150.20370597  .00004650  00000-0  19065-2 0  9997","tle_line2":"2 31661  98.8510 236.0532 0059750  98.9719 290.4329 14.26626783981147","fetched_at":"2026-05-30T16:18:06.042337+00:00"}
{"norad_cat_id":"64524","object_name":"KUIPER-00064","object_id":"2025-134AA","object_type":"PAYLOAD","country_code":"US","epoch":"2026-05-30T04:53:13.454016","creation_date":"2026-05-30T07:46:57","launch_date":"2025-06-23","decay_date":null,"inclination":51.9021,"eccentricity":4.3e-05,"mean_motion":14.7993408,"period":97.302,"semimajor_axis":7007.669,"apoapsis":629.836,"periapsis":629.233,"tle_line0":"0 KUIPER-00064","tle_line1":"1 64524U 25134AA  26150.20362794  .00001385  00000-0  21058-3 0  9999","tle_line2":"2 64524  51.9021 235.0887 0000430  80.7054 279.3957 14.79934080 52111","fetched_at":"2026-05-30T16:18:06.042337+00:00"}
{"norad_cat_id":"57424","object_name":"OBJECT A","object_id":"2023-104A","object_type":"UNKNOWN","country_code":"PRC","epoch":"2026-05-30T04:53:11.878080","creation_date":"2026-05-30T07:36:53","launch_date":"2023-07-23","decay_date":null,"inclination":97.2708,"eccentricity":0.0007951,"mean_motion":15.34584281,"period":93.836,"semimajor_axis":6840.293,"apoapsis":467.596,"periapsis":456.719,"tle_line0":"0 OBJECT A","tle_line1":"1 57424U 23104A   26150.20360970  .00015611  00000-0  46737-3 0  9997","tle_line2":"2 57424  97.2708 218.7058 0007951 168.4102 191.7326 15.34584281159287","fetched_at":"2026-05-30T16:18:06.042337+00:00"}
{"norad_cat_id":"21450","object_name":"DELTA 1 DEB","object_id":"1975-052EJ","object_type":"DEBRIS","country_code":"US","epoch":"2026-05-30T04:53:11.300064","creation_date":"2026-05-30T07:36:53","launch_date":"1975-06-12","decay_date":null,"inclination":99.8516,"eccentricity":0.005826,"mean_motion":13.35381663,"period":107.834,"semimajor_axis":7504.669,"apoapsis":1170.257,"periapsis":1082.812,"tle_line0":"0 DELTA 1 DEB","tle_line1":"1 21450U 75052EJ  26150.20360301  .00000112  00000-0  30295-3 0  9996","tle_line2":"2 21450  99.8516  37.0181 0058260 297.2473 216.3802 13.35381663707013","fetched_at":"2026-05-30T16:18:06.042337+00:00"}
{"norad_cat_id":"41022","object_name":"CZ-3B R/B","object_id":"2015-063B","object_type":"ROCKET BODY","country_code":"PRC","epoch":"2026-05-30T04:53:11.192928","creation_date":"2026-05-30T07:26:56","launch_date":"2015-11-03","decay_date":null,"inclination":26.7524,"eccentricity":0.6162947,"mean_motion":3.86558958,"period":372.518,"semimajor_axis":17149.759,"apoapsis":21340.929,"periapsis":202.318,"tle_line0":"0 CZ-3B R/B","tle_line1":"1 41022U 15063B   26150.20360177  .00051350  00000-0  19633-2 0  9992","tle_line2":"2 41022  26.7524 206.5791 6162947  70.4768 343.7595  3.86558958108208","fetched_at":"2026-05-30T16:18:06.042337+00:00"}
